TDRS 3                  
1 19548U 88091B   21170.91230306 -.00000302  00000-0  00000+0 0  9993
2 19548  13.9625 354.2542 0034446 329.2678 224.2058  1.00264497107080
HST                     
1 20580U 90037B   21171.37356733  .00000508  00000-0  19764-4 0  9997
2 20580  28.4710  45.7568 0002842  94.8923  75.8009 15.09663011511700
TDRS 5                  
1 21639U 91054B   21170.75094818  .00000083  00000-0  00000+0 0  9993
2 21639  14.2533   7.5750 0026103  10.7885 352.5208  1.00271048109420
TDRS 6                  
1 22314U 93003B   21171.34867924 -.00000298  00000-0  00000+0 0  9991
2 22314  14.0980  10.7679 0010278  94.7277 242.6734  1.00264290104096
TDRS 7                  
1 23613U 95035B   21170.52202402 -.00000203  00000-0  00000+0 0  9990
2 23613  14.1026   1.4542 0030453  45.7128 133.4319  1.00276580 94869
ISS (ZARYA)             
1 25544U 98067A   21171.52477565  .00000573  00000-0  18561-4 0  9993
2 25544  51.6439 326.2204 0003431 114.0576 357.2071 15.49003599289115
LANDSAT 7               
1 25682U 99020A   21169.47216761  .00000043  00000-0  19246-4 0  9999
2 25682  98.0304 226.3014 0001608 100.0882 260.0501 14.57199275179541
TERRA                   
1 25994U 99068A   21170.84721894  .00000043  00000-0  19540-4 0  9995
2 25994  98.1757 245.2271 0001373  90.1898  24.7161 14.57127916143697
TDRS 8                  
1 26388U 00034A   21170.65863998 -.00000233  00000-0  00000+0 0  9997
2 26388   9.8004  45.0406 0021805 344.2701 205.2449  1.00275569 76886
TIMED                   
1 26998U 01055B   21171.30066503  .00000108  00000-0  15777-4 0  9990
2 26998  74.0728 280.8553 0002218 270.9579  89.1348 14.88315313 59269
TDRS 9                  
1 27389U 02011A   21171.13243874 -.00000285  00000-0  00000+0 0  9992
2 27389   8.2565  64.1016 0023372 295.4759 254.4203  1.00268225 72154
AQUA                    
1 27424U 02022A   21170.78366677  .00000085  00000-0  28845-4 0  9990
2 27424  98.2098 112.0740 0000609  43.9300 347.1259 14.57114662 17372
TDRS 10                 
1 27566U 02055A   21171.34164052  .00000092  00000-0  00000+0 0  9995
2 27566   7.5519  51.8842 0010067 336.6110 192.1484  1.00276265 67941
SORCE                   
1 27651U 03004A   21171.14091430  .00000111  00000-0  25611-4 0  9994
2 27651  39.9960  79.2700 0021282  86.4311 273.8912 14.89315953999065
AURA                    
1 28376U 04026A   21170.85199401  .00000091  00000-0  30188-4 0  9990
2 28376  98.2101 114.2975 0001284  89.9719 270.1626 14.57110802900424
SWIFT                   
1 28485U 04047A   21170.80666712  .00000942  00000-0  33500-4 0  9999
2 28485  20.5576 332.5186 0011137  25.7221 334.3766 15.05019077908907
THEMIS A                
1 30580U 07004A   21170.25729862 -.00000511  00000-0  00000+0 0  9996
2 30580  16.3638  16.8942 8397466  97.6078 351.5546  0.87837183 49934
THEMIS D                
1 30797U 07004D   21170.42763608 -.00000467  00000-0  00000+0 0  9991
2 30797  13.5034   3.2146 8372275 113.3472  51.8793  0.87839468 49464
THEMIS E                
1 30798U 07004E   21170.51522872 -.00000454  00000-0  00000+0 0  9994
2 30798  13.3057  15.0067 8359996 104.3599  64.3207  0.87843277 49873
AIM                     
1 31304U 07015A   21171.44283490  .00001015  00000-0  59097-4 0  9991
2 31304  97.8690  73.2222 0005222 161.7299 198.4120 15.14456038776367
FGRST (GLAST)           
1 33053U 08029A   21171.18465628  .00000480  00000-0  10548-4 0  9999
2 33053  25.5821 115.7995 0011979 305.3364  54.6052 15.11535693719038
WISE                    
1 36119U 09071A   21171.37340262  .00001092  00000-0  39034-4 0  9991
2 36119  97.2833 207.8695 0003693 128.8814 231.2757 15.30935308640097
TDRS 11                 
1 39070U 13004A   21171.25278590  .00000085  00000-0  00000+0 0  9999
2 39070   3.3274 337.5828 0006009  68.2847 139.4478  1.00275315 30706
TDRS 12                 
1 39504U 14004A   21171.34837828 -.00000265  00000-0  00000+0 0  9998
2 39504   4.2182 341.9226 0002850 138.7363 232.6495  1.00275223 27173
GPM-CORE                
1 39574U 14009C   21171.17418566  .00003016  00000-0  47374-4 0  9991
2 39574  65.0057 340.8692 0010264 274.1251  85.8722 15.55947411415262
MMS 1                   
1 40482U 15011C   21170.28078749 -.00000475  00000-0  10000-3 0  9993
2 40482  33.5342 116.8453 8436423  33.2510 356.9965  0.28558850 12267
MMS 2                   
1 40483U 15011A   21170.28102368 -.00000474  00000-0  10000-3 0  9998
2 40483  33.5331 116.8463 8436388  33.2775 356.9942  0.28535019 12245
MMS 3                   
1 40484U 15011C   21170.03475694 -.00000455  00000-0  00000+0 0  9991
2 40484  33.5278 116.8540 8439838  33.2694 331.6606  0.28560378 12237
MMS 4                   
1 40485U 15011D   21150.80548125 -.00000488  00000-0  00000+0 0  9991
2 40485  33.4521 117.0984 8440820  32.5680 156.1830  0.28465260 12180
TDRS 13                 
1 42915U 17047A   21171.34665088 -.00000096  00000-0  00000+0 0  9997
2 42915   5.0108 331.0934 0019326 107.9066 303.0500  1.00271505 14108
JPSS-1                  
1 43013U 17073A   21171.21467147 -.00000005  00000-0  18147-4 0  9994
2 43013  98.7209 109.8141 0001242  71.1912 288.9399 14.19547187185832
